{"type": "FeatureCollection", "features": [ {"type": "Feature", "properties": {"norad_id": 34375, "name": "IRIDIUM 33 DEB", "group": "iridium-33-debris", "lat": -55.89657649823125, "lon": 3.4700653973337676, "alt_km": 899.7468013629887, "timestamp": "2025-12-23T22:42:33.370606+00:00", "meta": {"OBJECT_NAME": "IRIDIUM 33 DEB", "OBJECT_ID": "1997-051FT", "EPOCH": "2025-12-22T12:02:26.342592", "MEAN_MOTION": 14.18009533, "ECCENTRICITY": 0.01037059, "INCLINATION": 86.4323, "RA_OF_ASC_NODE": 178.7659, "ARG_OF_PERICENTER": 96.2041, "MEAN_ANOMALY": 329.6113, "EPHEMERIS_TYPE": 0, "CLASSIFICATION_TYPE": "U", "NORAD_CAT_ID": 34375, "ELEMENT_SET_NO": 999, "REV_AT_EPOCH": 86850, "BSTAR": 0.00038502204, "MEAN_MOTION_DOT": 8.51e-06, "MEAN_MOTION_DDOT": 0}, "tle": {"line1": "1 34375U 97051FT  25356.50169378  .00000851  00000+0  38502-3 0  9998", "line2": "2 34375  86.4323 178.7659 0103705  96.2041 329.6113 14.18009533868507"}}, "geometry": {"type": "Point", "coordinates": [3.4700653973337676, -55.89657649823125]}}, {"type": "Feature", "properties": {"norad_id": 34376, "name": "IRIDIUM 33 DEB", "group": "iridium-33-debris", "lat": -66.02660106379871, "lon": -170.12665546738978, "alt_km": 700.6416330484399, "timestamp": "2025-12-23T22:42:33.370617+00:00", "meta": {"OBJECT_NAME": "IRIDIUM 33 DEB", "OBJECT_ID": "1997-051FU", "EPOCH": "2025-12-22T17:40:39.041472", "MEAN_MOTION": 14.62694295, "ECCENTRICITY": 0.00282683, "INCLINATION": 86.2978, "RA_OF_ASC_NODE": 2.0446, "ARG_OF_PERICENTER": 133.8099, "MEAN_ANOMALY": 226.5457, "EPHEMERIS_TYPE": 0, "CLASSIFICATION_TYPE": "U", "NORAD_CAT_ID": 34376, "ELEMENT_SET_NO": 999, "REV_AT_EPOCH": 88153, "BSTAR": 0.0014444618, "MEAN_MOTION_DOT": 7.418e-05, "MEAN_MOTION_DDOT": 0}, "tle": {"line1": "1 34376U 97051FU  25356.73656298  .00007418  00000+0  14445-2 0  9991", "line2": "2 34376  86.2978   2.0446 0028268 133.8099 226.5457 14.62694295881534"}}, "geometry": {"type": "Point", "coordinates": [-170.12665546738978, -66.02660106379871]}}, {"type": "Feature", "properties": {"norad_id": 34486, "name": "IRIDIUM 33 DEB", "group": "iridium-33-debris", "lat": 7.690370397418743, "lon": 7.338271558149422, "alt_km": 577.3705563204312, "timestamp": "2025-12-23T22:42:33.370628+00:00", "meta": {"OBJECT_NAME": "IRIDIUM 33 DEB", "OBJECT_ID": "1997-051GB", "EPOCH": "2025-12-22T11:56:52.779840", "MEAN_MOTION": 14.9620636, "ECCENTRICITY": 0.00139165, "INCLINATION": 86.3926, "RA_OF_ASC_NODE": 7.5191, "ARG_OF_PERICENTER": 84.4454, "MEAN_ANOMALY": 47.0404, "EPHEMERIS_TYPE": 0, "CLASSIFICATION_TYPE": "U", "NORAD_CAT_ID": 34486, "ELEMENT_SET_NO": 999, "REV_AT_EPOCH": 89132, "BSTAR": 0.002364133, "MEAN_MOTION_DOT": 0.00026794, "MEAN_MOTION_DDOT": 0}, "tle": {"line1": "1 34486U 97051GB  25356.49783310  .00026794  00000+0  23641-2 0  9998", "line2": "2 34486  86.3926   7.5191 0013916  84.4454  47.0404 14.96206360891322"}}, "geometry": {"type": "Point", "coordinates": [7.338271558149422, 7.690370397418743]}}, {"type": "Feature", "properties": {"norad_id": 34487, "name": "IRIDIUM 33 DEB", "group": "iridium-33-debris", "lat": 55.158829984567824, "lon": 12.823923832906699, "alt_km": 723.976040184787, "timestamp": "2025-12-23T22:42:33.370639+00:00", "meta": {"OBJECT_NAME": "IRIDIUM 33 DEB", "OBJECT_ID": "1997-051GC", "EPOCH": "2025-12-23T01:04:13.236960", "MEAN_MOTION": 14.43228898, "ECCENTRICITY": 0.00332442, "INCLINATION": 86.3429, "RA_OF_ASC_NODE": 7.9402, "ARG_OF_PERICENTER": 96.3176, "MEAN_ANOMALY": 317.7996, "EPHEMERIS_TYPE": 0, "CLASSIFICATION_TYPE": "U", "NORAD_CAT_ID": 34487, "ELEMENT_SET_NO": 999, "REV_AT_EPOCH": 88397, "BSTAR": 0.00017561183, "MEAN_MOTION_DOT": 6.15e-06, "MEAN_MOTION_DDOT": 0}, "tle": {"line1": "1 34487U 97051GC  25357.04459765  .00000615  00000+0  17561-3 0  9994", "line2": "2 34487  86.3429   7.9402 0033244  96.3176 317.7996 14.43228898883976"}}, "geometry": {"type": "Point", "coordinates": [12.823923832906699, 55.158829984567824]}}, {"type": "Feature", "properties": {"norad_id": 34488, "name": "IRIDIUM 33 DEB", "group": "iridium-33-debris", "lat": -49.454507288605505, "lon": -64.05337412818221, "alt_km": 475.33499918583584, "timestamp": "2025-12-23T22:42:33.370650+00:00", "meta": {"OBJECT_NAME": "IRIDIUM 33 DEB", "OBJECT_ID": "1997-051GD", "EPOCH": "2025-12-22T20:16:29.836992", "MEAN_MOTION": 15.31851895, "ECCENTRICITY": 0.00102762, "INCLINATION": 86.3272, "RA_OF_ASC_NODE": 300.8002, "ARG_OF_PERICENTER": 36.0994, "MEAN_ANOMALY": 324.0947, "EPHEMERIS_TYPE": 0, "CLASSIFICATION_TYPE": "U", "NORAD_CAT_ID": 34488, "ELEMENT_SET_NO": 999, "REV_AT_EPOCH": 89394, "BSTAR": 0.0043586742, "MEAN_MOTION_DOT": 0.00136379, "MEAN_MOTION_DDOT": 0}, "tle": {"line1": "1 34488U 97051GD  25356.84478978  .00136379  00000+0  43587-2 0  9992", "line2": "2 34488  86.3272 300.8002 0010276  36.0994 324.0947 15.31851895893945"}}, "geometry": {"type": "Point", "coordinates": [-64.05337412818221, -49.454507288605505]}}, {"type": "Feature", "properties": {"norad_id": 34492, "name": "IRIDIUM 33 DEB", "group": "iridium-33-debris", "lat": 16.548460630104767, "lon": 149.04722197009556, "alt_km": 698.9634506604498, "timestamp": "2025-12-23T22:42:33.370660+00:00", "meta": {"OBJECT_NAME": "IRIDIUM 33 DEB", "OBJECT_ID": "1997-051GH", "EPOCH": "2025-12-22T16:27:23.909760", "MEAN_MOTION": 14.25892201, "ECCENTRICITY": 0.01887746, "INCLINATION": 86.4712, "RA_OF_ASC_NODE": 330.6072, "ARG_OF_PERICENTER": 205.8586, "MEAN_ANOMALY": 332.2477, "EPHEMERIS_TYPE": 0, "CLASSIFICATION_TYPE": "U", "NORAD_CAT_ID": 34492, "ELEMENT_SET_NO": 999, "REV_AT_EPOCH": 85200, "BSTAR": 0.0029608099, "MEAN_MOTION_DOT": 8.523e-05, "MEAN_MOTION_DDOT": 0}, "tle": {"line1": "1 34492U 97051GH  25356.68569340  .00008523  00000+0  29608-2 0  9990", "line2": "2 34492  86.4712 330.6072 0188774 205.8586 332.2477 14.25892201852009"}}, "geometry": {"type": "Point", "coordinates": [149.04722197009556, 16.548460630104767]}}, {"type": "Feature", "properties": {"norad_id": 34497, "name": "IRIDIUM 33 DEB", "group": "iridium-33-debris", "lat": 70.2511616510063, "lon": -142.8355708745182, "alt_km": 847.8923634457897, "timestamp": "2025-12-23T22:42:33.370670+00:00", "meta": {"OBJECT_NAME": "IRIDIUM 33 DEB", "OBJECT_ID": "1997-051GN", "EPOCH": "2025-12-22T21:33:03.136608", "MEAN_MOTION": 14.27482363, "ECCENTRICITY": 0.00780484, "INCLINATION": 86.2769, "RA_OF_ASC_NODE": 48.0617, "ARG_OF_PERICENTER": 306.2683, "MEAN_ANOMALY": 179.2919, "EPHEMERIS_TYPE": 0, "CLASSIFICATION_TYPE": "U", "NORAD_CAT_ID": 34497, "ELEMENT_SET_NO": 999, "REV_AT_EPOCH": 87028, "BSTAR": 0.00056228088, "MEAN_MOTION_DOT": 1.443e-05, "MEAN_MOTION_DDOT": 0}, "tle": {"line1": "1 34497U 97051GN  25356.89795297  .00001443  00000+0  56228-3 0  9993", "line2": "2 34497  86.2769  48.0617 0078048 306.2683 179.2919 14.27482363870281"}}, "geometry": {"type": "Point", "coordinates": [-142.8355708745182, 70.2511616510063]}}, {"type": "Feature", "properties": {"norad_id": 34508, "name": "IRIDIUM 33 DEB", "group": "iridium-33-debris", "lat": -10.24130484498754, "lon": 97.23567654256097, "alt_km": 807.5484312140579, "timestamp": "2025-12-23T22:42:33.370681+00:00", "meta": {"OBJECT_NAME": "IRIDIUM 33 DEB", "OBJECT_ID": "1997-051GZ", "EPOCH": "2025-12-22T06:41:24.031968", "MEAN_MOTION": 14.38495257, "ECCENTRICITY": 0.00666176, "INCLINATION": 86.3708, "RA_OF_ASC_NODE": 98.5996, "ARG_OF_PERICENTER": 142.363, "MEAN_ANOMALY": 218.2258, "EPHEMERIS_TYPE": 0, "CLASSIFICATION_TYPE": "U", "NORAD_CAT_ID": 34508, "ELEMENT_SET_NO": 999, "REV_AT_EPOCH": 87446, "BSTAR": 0.0011650926, "MEAN_MOTION_DOT": 3.671e-05, "MEAN_MOTION_DDOT": 0}, "tle": {"line1": "1 34508U 97051GZ  25356.27875037  .00003671  00000+0  11651-2 0  9994", "line2": "2 34508  86.3708  98.5996 0066617 142.3630 218.2258 14.38495257874460"}}, "geometry": {"type": "Point", "coordinates": [97.23567654256097, -10.24130484498754]}}, {"type": "Feature", "properties": {"norad_id": 34521, "name": "IRIDIUM 33 DEB", "group": "iridium-33-debris", "lat": 85.42581157784359, "lon": 153.27415577413288, "alt_km": 674.1162284551956, "timestamp": "2025-12-23T22:42:33.370691+00:00", "meta": {"OBJECT_NAME": "IRIDIUM 33 DEB", "OBJECT_ID": "1997-051HN", "EPOCH": "2025-12-23T00:57:12.292704", "MEAN_MOTION": 14.63446823, "ECCENTRICITY": 0.00028679, "INCLINATION": 86.3784, "RA_OF_ASC_NODE": 26.0126, "ARG_OF_PERICENTER": 172.6543, "MEAN_ANOMALY": 187.4712, "EPHEMERIS_TYPE": 0, "CLASSIFICATION_TYPE": "U", "NORAD_CAT_ID": 34521, "ELEMENT_SET_NO": 999, "REV_AT_EPOCH": 88623, "BSTAR": 0.00088486423, "MEAN_MOTION_DOT": 4.6e-05, "MEAN_MOTION_DDOT": 0}, "tle": {"line1": "1 34521U 97051HN  25357.03972561  .00004600  00000+0  88486-3 0  9998", "line2": "2 34521  86.3784  26.0126 0002867 172.6543 187.4712 14.63446823886239"}}, "geometry": {"type": "Point", "coordinates": [153.27415577413288, 85.42581157784359]}}, {"type": "Feature", "properties": {"norad_id": 34525, "name": "IRIDIUM 33 DEB", "group": "iridium-33-debris", "lat": 13.471312067588299, "lon": -138.81075928880688, "alt_km": 750.6034262129997, "timestamp": "2025-12-23T22:42:33.370702+00:00", "meta": {"OBJECT_NAME": "IRIDIUM 33 DEB", "OBJECT_ID": "1997-051HS", "EPOCH": "2025-12-23T02:06:13.696992", "MEAN_MOTION": 14.42929063, "ECCENTRICITY": 0.00063437, "INCLINATION": 86.3718, "RA_OF_ASC_NODE": 42.4266, "ARG_OF_PERICENTER": 71.3157, "MEAN_ANOMALY": 318.0037, "EPHEMERIS_TYPE": 0, "CLASSIFICATION_TYPE": "U", "NORAD_CAT_ID": 34525, "ELEMENT_SET_NO": 999, "REV_AT_EPOCH": 88237, "BSTAR": 0.00032314347, "MEAN_MOTION_DOT": 1.1e-05, "MEAN_MOTION_DDOT": 0}, "tle": {"line1": "1 34525U 97051HS  25357.08765853  .00001100  00000+0  32314-3 0  9992", "line2": "2 34525  86.3718  42.4266 0006343  71.3157 318.0037 14.42929063882378"}}, "geometry": {"type": "Point", "coordinates": [-138.81075928880688, 13.471312067588299]}}]}